*******************************************************************************
Ephemeris / WWW_USER Tue Mar 27 19:59:28 2018 Pasadena, USA      / Horizons    
*******************************************************************************
Target body name: Jupiter Barycenter (5)          {source: DE431mx}
Center body name: Solar System Barycenter (0)     {source: DE431mx}
Center-site name: BODY CENTER
*******************************************************************************
Start time      : A.D. 2000-Jan-01 00:00:00.0000 TDB
Stop  time      : A.D. 2010-Jan-01 00:00:00.0000 TDB
Step-size       : 7200 minutes
*******************************************************************************
Center geodetic : 0.00000000,0.00000000,0.0000000 {E-lon(deg),Lat(deg),Alt(km)}
Center cylindric: 0.00000000,0.00000000,0.0000000 {E-lon(deg),Dxy(km),Dz(km)}
Center radii    : (undefined)                                                  
Output units    : AU-D                                                         
Output type     : GEOMETRIC cartesian states
Output format   : 2 (position and velocity)
Reference frame : ICRF/J2000.0                                                 
Coordinate systm: Ecliptic and Mean Equinox of Reference Epoch                 
*******************************************************************************
JDTDB
   X     Y     Z
   VX    VY    VZ
*******************************************************************************
$$SOE
2452384.500000000 = A.D. 2002-Apr-20 00:00:00.0000 TDB 
  -1.754961330383454E+00  4.901419584348723E+00  1.894142777721034E-02
  -7.198701648660559E-03 -2.184762413872204E-03  1.701482044970344E-04
2452389.500000000 = A.D. 2002-Apr-25 00:00:00.0000 TDB 
  -1.790908660464108E+00  4.890367678748651E+00  1.979166634998353E-02
  -7.180170986963494E-03 -2.235971528953643E-03  1.699457786814457E-04
2452394.500000000 = A.D. 2002-Apr-30 00:00:00.0000 TDB 
  -1.826762447728520E+00  4.879060153963563E+00  2.064087112891531E-02
  -7.161284810926013E-03 -2.287009702043909E-03  1.697346918117160E-04
2452399.500000000 = A.D. 2002-May-05 00:00:00.0000 TDB 
  -1.862520918946377E+00  4.867497870475034E+00  2.148899888178789E-02
  -7.142044859085026E-03 -2.337874627679882E-03  1.695149731659693E-04
2452404.500000000 = A.D. 2002-May-10 00:00:00.0000 TDB 
  -1.898182309609569E+00  4.855681700244109E+00  2.233600652363057E-02
  -7.122452881750009E-03 -2.388564019545045E-03  1.692866523645684E-04
2452409.500000000 = A.D. 2002-May-15 00:00:00.0000 TDB 
  -1.933744863990548E+00  4.843612526615519E+00  2.318185111841763E-02
  -7.102510640795765E-03 -2.439075610488910E-03  1.690497593646609E-04
2452414.500000000 = A.D. 2002-May-20 00:00:00.0000 TDB 
  -1.969206835199554E+00  4.831291244221716E+00  2.402648988074496E-02
  -7.082219909428527E-03 -2.489407152576753E-03  1.688043244562096E-04
2452419.500000000 = A.D. 2002-May-25 00:00:00.0000 TDB 
  -2.004566485240748E+00  4.818718758886737E+00  2.486988017747840E-02
  -7.061582471974089E-03 -2.539556417116077E-03  1.685503782577573E-04
2452424.500000000 = A.D. 2002-May-30 00:00:00.0000 TDB 
  -2.039822085067291E+00  4.805895987529907E+00  2.571197952939481E-02
  -7.040600123674532E-03 -2.589521194686997E-03  1.682879517135453E-04
2452429.500000000 = A.D. 2002-Jun-04 00:00:00.0000 TDB 
  -2.074971914635443E+00  4.792823858069442E+00  2.655274561279840E-02
  -7.019274670496276E-03 -2.639299295155505E-03  1.680170760904884E-04
2452434.500000000 = A.D. 2002-Jun-09 00:00:00.0000 TDB 
  -2.110014262957728E+00  4.779503309326012E+00  2.739213626112835E-02
  -6.997607928947504E-03 -2.688888547669950E-03  1.677377829750519E-04
2452439.500000000 = A.D. 2002-Jun-14 00:00:00.0000 TDB 
  -2.144947428155181E+00  4.765935290926387E+00  2.823010946654893E-02
  -6.975601725895110E-03 -2.738286800638167E-03  1.674501042700004E-04
2452444.500000000 = A.D. 2002-Jun-19 00:00:00.0000 TDB 
  -2.179769717508684E+00  4.752120763207217E+00  2.906662338151901E-02
  -6.953257898378724E-03 -2.787491921693224E-03  1.671540721895461E-04
2452449.500000000 = A.D. 2002-Jun-24 00:00:00.0000 TDB 
  -2.214479447509357E+00  4.738060697119014E+00  2.990163632033790E-02
  -6.930578293421349E-03 -2.836501797650531E-03  1.668497192551341E-04
2452454.500000000 = A.D. 2002-Jun-29 00:00:00.0000 TDB 
  -2.249074943907975E+00  4.723756074130344E+00  3.073510676067020E-02
  -6.907564767830005E-03 -2.885314334465401E-03  1.665370782906891E-04
2452459.500000000 = A.D. 2002-Jul-04 00:00:00.0000 TDB 
  -2.283554541763400E+00  4.709207886132230E+00  3.156699334504783E-02
  -6.884219187997832E-03 -2.933927457193528E-03  1.662161824180949E-04
2452464.500000000 = A.D. 2002-Jul-09 00:00:00.0000 TDB 
  -2.317916585490016E+00  4.694417135342746E+00  3.239725488234790E-02
  -6.860543429709871E-03 -2.982339109954382E-03  1.658870650530814E-04
2452469.500000000 = A.D. 2002-Jul-14 00:00:00.0000 TDB 
  -2.352159428904233E+00  4.679384834211795E+00  3.322585034924971E-02
  -6.836539377963431E-03 -3.030547255880342E-03  1.655497598996508E-04
2452474.500000000 = A.D. 2002-Jul-19 00:00:00.0000 TDB 
  -2.386281435270121E+00  4.664112005326272E+00  3.405273889165599E-02
  -6.812208926793454E-03 -3.078549877033673E-03  1.652043009418684E-04
2452479.500000000 = A.D. 2002-Jul-24 00:00:00.0000 TDB 
  -2.420280977344077E+00  4.648599681315631E+00  3.487787982606927E-02
  -6.787553979054141E-03 -3.126344974310390E-03  1.648507224336046E-04
2452484.500000000 = A.D. 2002-Jul-29 00:00:00.0000 TDB 
  -2.454156437418277E+00  4.632848904757828E+00  3.570123264092544E-02
  -6.762576446161916E-03 -3.173930567419423E-03  1.644890588941877E-04
2452489.500000000 = A.D. 2002-Aug-03 00:00:00.0000 TDB 
  -2.487906207362913E+00  4.616860728085191E+00  3.652275699791855E-02
  -6.737278247871378E-03 -3.221304694903442E-03  1.641193451080778E-04
2452494.500000000 = A.D. 2002-Aug-08 00:00:00.0000 TDB 
  -2.521528688667392E+00  4.600636213490262E+00  3.734241273332597E-02
  -6.711661312088060E-03 -3.268465414132840E-03  1.637416161225313E-04
2452499.500000000 = A.D. 2002-Aug-13 00:00:00.0000 TDB 
  -2.555022292480699E+00  4.584176432831724E+00  3.816015985930669E-02
  -6.685727574706661E-03 -3.315410801269816E-03  1.633559072430326E-04
2452504.500000000 = A.D. 2002-Aug-18 00:00:00.0000 TDB 
  -2.588385439650855E+00  4.567482467540600E+00  3.897595856518071E-02
  -6.659478979416525E-03 -3.362138951207955E-03  1.629622540266188E-04
2452509.500000000 = A.D. 2002-Aug-23 00:00:00.0000 TDB 
  -2.621616560763437E+00  4.550555408526708E+00  3.978976921866975E-02
  -6.632917477517009E-03 -3.408647977529515E-03  1.625606922766408E-04
2452514.500000000 = A.D. 2002-Aug-28 00:00:00.0000 TDB 
  -2.654714096179128E+00  4.533396356085322E+00  4.060155236711840E-02
  -6.606045027719333E-03 -3.454936012461411E-03  1.621512580376315E-04
2452519.500000000 = A.D. 2002-Sep-02 00:00:00.0000 TDB 
  -2.687676496070293E+00  4.516006419804048E+00  4.141126873868729E-02
  -6.578863595953451E-03 -3.501001206838768E-03  1.617339875909528E-04
2452524.500000000 = A.D. 2002-Sep-07 00:00:00.0000 TDB 
  -2.720502220456598E+00  4.498386718469876E+00  4.221887924352625E-02
  -6.551375155177178E-03 -3.546841730069406E-03  1.613089174506706E-04
2452529.500000000 = A.D. 2002-Sep-12 00:00:00.0000 TDB 
  -2.753189739239674E+00  4.480538379976384E+00  4.302434497493014E-02
  -6.523581685188028E-03 -3.592455770099544E-03  1.608760843596650E-04
2452534.500000000 = A.D. 2002-Sep-17 00:00:00.0000 TDB 
  -2.785737532236850E+00  4.462462541231161E+00  4.382762721047222E-02
  -6.495485172437244E-03 -3.637841533377099E-03  1.604355252858192E-04
2452539.500000000 = A.D. 2002-Sep-22 00:00:00.0000 TDB 
  -2.818144089213962E+00  4.444160348063356E+00  4.462868741312116E-02
  -6.467087609845485E-03 -3.682997244823252E-03  1.599872774189215E-04
2452544.500000000 = A.D. 2002-Sep-27 00:00:00.0000 TDB 
  -2.850407909917247E+00  4.425632955131411E+00  4.542748723234147E-02
  -6.438390996623013E-03 -3.727921147794145E-03  1.595313781670759E-04
2452549.500000000 = A.D. 2002-Oct-02 00:00:00.0000 TDB 
  -2.882527504104349E+00  4.406881525830944E+00  4.622398850517929E-02
  -6.409397338092852E-03 -3.772611504059741E-03  1.590678651546200E-04
2452554.500000000 = A.D. 2002-Oct-07 00:00:00.0000 TDB 
  -2.914501391574470E+00  4.387907232202751E+00  4.701815325733846E-02
  -6.380108645532808E-03 -3.817066593773222E-03  1.585967762195206E-04
2452559.500000000 = A.D. 2002-Oct-12 00:00:00.0000 TDB 
  -2.946328102197805E+00  4.368711254841006E+00  4.780994370423770E-02
  -6.350526936040058E-03 -3.861284715418341E-03  1.581181494091606E-04
2452564.500000000 = A.D. 2002-Oct-17 00:00:00.0000 TDB 
  -2.978006175944329E+00  4.349294782801808E+00  4.859932225204360E-02
  -6.320654232405843E-03 -3.905264185723503E-03  1.576320229735874E-04
2452569.500000000 = A.D. 2002-Oct-22 00:00:00.0000 TDB 
  -3.009534162911855E+00  4.329659013512232E+00  4.938625149866243E-02
  -6.290492562943073E-03 -3.949003339556180E-03  1.571384353579007E-04
2452574.500000000 = A.D. 2002-Oct-27 00:00:00.0000 TDB 
  -3.040910623353153E+00  4.309805152679750E+00  5.017069423471066E-02
  -6.260043961288190E-03 -3.992500529890544E-03  1.566374252015576E-04
2452579.500000000 = A.D. 2002-Nov-01 00:00:00.0000 TDB 
  -3.072134127702125E+00  4.289734414201709E+00  5.095261344448974E-02
  -6.229310466234666E-03 -4.035754127797850E-03  1.561290313386382E-04
2452584.500000000 = A.D. 2002-Nov-06 00:00:00.0000 TDB 
  -3.103203256599287E+00  4.269448020074938E+00  5.173197230695389E-02
  -6.198294121617460E-03 -4.078762522404390E-03  1.556132927960379E-04
2452589.500000000 = A.D. 2002-Nov-11 00:00:00.0000 TDB 
  -3.134116600916704E+00  4.248947200305644E+00  5.250873419666696E-02
  -6.166996976203207E-03 -4.121524120818326E-03  1.550902487895690E-04
